STARLINK-32914          
1 63086U 25037K   25078.91667824 -.01294208  00000+0 -13688-1 0  9999
2 63086  69.9993 182.0778 0003482 278.6313  51.3566 15.66777596  5167
STARLINK-32918          
1 63087U 25037L   25078.91667824 -.01294997  00000+0 -13697-1 0  9995
2 63087  69.9993 182.0754 0003526 277.8292  54.0755 15.66777613  5168
STARLINK-32912          
1 63088U 25037M   25078.91667824 -.01293300  00000+0 -13678-1 0  9992
2 63088  69.9996 182.0745 0003378 278.4626  55.3576 15.66777577  5169
STARLINK-32910          
1 63089U 25037N   25078.91667824 -.01292233  00000+0 -13664-1 0  9992
2 63089  69.9997 182.0719 0003646 277.7319  58.0063 15.66776710  5160
STARLINK-32903          
1 63090U 25037P   25078.91667824 -.01292654  00000+0 -13669-1 0  9996
2 63090  69.9994 182.0700 0003565 279.4396  58.2127 15.66777677  4809
STARLINK-32925          
1 63091U 25037Q   25078.91667824 -.01294634  00000+0 -13692-1 0  9993
2 63091  69.9997 182.0676 0003574 279.9135  59.6557 15.66778283  5112
STARLINK-32924          
1 63092U 25037R   25079.16668981 -.01184752  00000+0 -12783-1 0  9996
2 63092  69.9997 181.3677 0003469 273.3188  37.5900 15.66041752  5161
STARLINK-32900          
1 63093U 25037S   25078.91667824 -.01279862  00000+0 -13524-1 0  9995
2 63093  69.9994 182.0640 0003664 280.4116  62.9989 15.66765654  4964
STARLINK-32927          
1 63094U 25037T   25078.91667824 -.01295923  00000+0 -13707-1 0  9995
2 63094  69.9998 182.0611 0003572 278.1921  67.1272 15.66778736  5129
STARLINK-32907          
1 63095U 25037U   25078.91667824 -.01290225  00000+0 -13640-1 0  9992
2 63095  69.9998 182.0587 0003760 277.8764  69.3606 15.66775748  5127
STARLINK-32911          
1 63096U 25037V   25078.91667824 -.01289799  00000+0 -13636-1 0  9992
2 63096  69.9999 182.0564 0003654 278.6344  70.5192 15.66775266  5162
STARLINK-32923          
1 63097U 25037W   25078.91667824 -.01294502  00000+0 -13692-1 0  9993
2 63097  69.9998 182.0520 0003365 277.0847  75.9017 15.66778123  5164
STARLINK-32913          
1 63098U 25037X   25078.91667824 -.01294755  00000+0 -13693-1 0  9995
2 63098  69.9999 182.0536 0003533 280.1658  70.9006 15.66779575  5115
STARLINK-11629 [DTC]    
1 63104U 25039A   25078.86313721  .00017279  00000+0  10184-3 0  9998
2 63104  42.9965 220.7199 0001733 277.6380  82.4293 15.77880741  4479
STARLINK-11624 [DTC]    
1 63105U 25039B   25078.85825913  .00022356  00000+0  13082-3 0  9991
2 63105  42.9984 220.6791 0001561 253.1637 106.9062 15.77885309  4461
STARLINK-11584 [DTC]    
1 63106U 25039C   25078.85337836  .00029479  00000+0  17144-3 0  9990
2 63106  42.9982 220.6391 0001749 260.2956  99.7717 15.77886558  3751
STARLINK-11627 [DTC]    
1 63107U 25039D   25078.84850182  .00072500  00000+0  41534-3 0  9997
2 63107  42.9982 220.6007 0001087 266.6347  93.4399 15.77888946  3755
STARLINK-11632 [DTC]    
1 63108U 25039E   25078.83335648  .00004176  00000+0  26871-4 0  9994
2 63108  42.9987 220.6263 0001735 278.9321  22.7917 15.77839454  4508
STARLINK-11625 [DTC]    
1 63109U 25039F   25078.91667824  .00139198  00000+0  79332-3 0  9990
2 63109  42.9988 220.0474 0001640 289.9525 153.3909 15.77755256  4500
STARLINK-11601 [DTC]    
1 63110U 25039G   25079.16668981  .00011033  00000+0  66288-4 0  9999
2 63110  42.9989 218.4532 0002058 267.6808 185.2814 15.77820953  4528
STARLINK-11630 [DTC]    
1 63111U 25039H   25079.16668981 -.00073298  00000+0 -42108-3 0  9997
2 63111  42.9991 218.3836 0002176 265.0671 215.5719 15.77899608  4523
STARLINK-11590 [DTC]    
1 63112U 25039J   25079.16668981 -.01098277  00000+0 -66086-2 0  9993
2 63112  42.9995 218.3177 0001864 276.1249 230.8711 15.79222961  4495
STARLINK-11598 [DTC]    
1 63113U 25039K   25079.16668981 -.01037710  00000+0 -56799-2 0  9999
2 63113  42.9992 218.2718 0001819 272.5036 252.9711 15.81533391  4521
STARLINK-11600 [DTC]    
1 63114U 25039L   25078.75783928  .00006148  00000+0  28331-4 0  9994
2 63114  42.9984 220.7613 0001877 256.4407 103.6257 15.84463573  3749
STARLINK-11597 [DTC]    
1 63115U 25039M   25078.75724279  .00019984  00000+0  86847-4 0  9997
2 63115  42.9987 220.7570 0001647 228.9463 131.1267 15.84418891  3746
STARLINK-11591 [DTC]    
1 63116U 25039N   25078.75673989  .00149603  00000+0  62352-3 0  9995
2 63116  42.9991 220.7507 0001970 263.8407  96.2242 15.84487136  3749
STARLINK-32955          
1 63117U 25039P   25079.16668981 -.01475589  00000+0 -23034-1 0  9998
2 63117  42.9995 219.4936 0001534 271.5152 122.3773 15.56116691  4503
STARLINK-32945          
1 63118U 25039Q   25079.16668981 -.01477055  00000+0 -23059-1 0  9996
2 63118  42.9995 219.4891 0001574 274.2666 121.5436 15.56117027  4509
STARLINK-32941          
1 63119U 25039R   25079.16668981 -.01482057  00000+0 -23144-1 0  9990
2 63119  42.9995 219.4790 0001578 275.0884 124.5560 15.56119832  4500
STARLINK-32942          
1 63120U 25039S   25079.16668981 -.01477766  00000+0 -23071-1 0  9992
2 63120  42.9995 219.4840 0001491 274.1374 123.5884 15.56118318  4490
STARLINK-32947          
1 63121U 25039T   25079.16668981 -.01477149  00000+0 -23062-1 0  9998
2 63121  42.9995 219.4748 0001437 274.6668 126.8953 15.56116751  4503
STARLINK-32961          
1 63122U 25039U   25079.16668981 -.01476761  00000+0 -23055-1 0  9990
2 63122  42.9995 219.4700 0001670 271.0738 132.4081 15.56114801  4509
STARLINK-32948          
1 63123U 25039V   25079.16668981 -.01479125  00000+0 -23093-1 0  9990
2 63123  42.9995 219.4647 0001674 273.0556 132.3391 15.56118595  4501
STARLINK-32957          
1 63124U 25039W   25079.16668981 -.01477351  00000+0 -23064-1 0  9998
2 63124  42.9996 219.4605 0001613 273.1296 134.1835 15.56116862  4500
SUPERVIEW NEO-1 03      
1 63125U 25040A   25079.24877462  .00017839  00000+0  78931-3 0  9999
2 63125  97.3124 200.2540 0000485 173.6833 186.4410 15.21727940  3157
SUPERVIEW NEO-1 04      
1 63126U 25040B   25079.11780445  .00024655  00000+0  10887-2 0  9999
2 63126  97.3134 200.1283 0000642 180.2972 179.8264 15.21730249  3143
CZ-2C R/B               
1 63127U 25040C   25078.87313258  .00024845  00000+0  96777-3 0  9990
2 63127  97.1402 199.2399 0016619 248.8573 111.0890 15.25835174  3112
PROGRESS-MS 30          
1 63129U 25041B   25078.82141387  .00025589  00000+0  46039-3 0  9992
2 63129  51.6365  29.6514 0003872  30.0919 330.0292 15.49653565  2389
COSMOS 2584 [GLONASS-K2]
1 63130U 25042A   25064.36754166  .00000017  00000+0  00000+0 0  9997
2 63130  64.8229  88.7725 0002688 303.9787  56.0471  2.12878091    50
FREGAT R/B              
1 63131U 25042B   25074.18340134  .00000031  00000+0  00000+0 0  9991
2 63131  64.8296  88.4378 0017066 197.7756 162.2104  2.13753452   256
STARLINK-11609 [DTC]    
1 63132U 25043A   25078.57835386  .00004584  00000+0  29188-4 0  9998
2 63132  42.9996 232.9045 0002056 294.0525  66.0129 15.77863185  3593
STARLINK-11604 [DTC]    
1 63133U 25043B   25078.70003922 -.00005271  00000+0 -27407-4 0  9995
2 63133  42.9994 232.0895 0005202 221.9249 138.1224 15.77837926  3506
STARLINK-11605 [DTC]    
1 63134U 25043C   25078.91667824  .00041190  00000+0  23868-3 0  9990
2 63134  42.9992 230.7044 0001759 278.7886 260.9413 15.77830908  3569
STARLINK-11610 [DTC]    
1 63135U 25043D   25078.91667824  .00001431  00000+0  11103-4 0  9995
2 63135  42.9996 230.6342 0001632 275.3026 292.2716 15.77829393  3563
STARLINK-11613 [DTC]    
1 63136U 25043E   25079.16668981  .00247998  00000+0  13896-2 0  9998
2 63136  43.0005 229.0398 0003029 261.4254 315.4345 15.77810212  3691
STARLINK-11616 [DTC]    
1 63137U 25043F   25079.16668981 -.00654515  00000+0 -39740-2 0  9994
2 63137  43.0005 228.9709 0001917 271.3359 333.2432 15.78299751  3691
STARLINK-11611 [DTC]    
1 63138U 25043G   25079.16668981 -.01103123  00000+0 -61672-2 0  9999
2 63138  43.0005 228.9177 0001914 271.4527 354.3934 15.80821162  3697
STARLINK-11628 [DTC]    
1 63139U 25043H   25078.61359739  .00044595  00000+0  19043-3 0  9997
2 63139  42.9983 232.2907 0001638 287.4255  72.6438 15.84413166  3614
STARLINK-11607 [DTC]    
1 63140U 25043J   25078.61299714 -.00001462  00000+0 -38509-5 0  9993
2 63140  43.0009 232.2802 0001741 243.4748 116.5946 15.84394639  3610
STARLINK-11522 [DTC]    
1 63141U 25043K   25078.61251897  .00041684  00000+0  17806-3 0  9997
2 63141  42.9997 232.2773 0001883 237.4302 122.6389 15.84430568  3439
STARLINK-11503 [DTC]    
1 63142U 25043L   25078.61190654  .00039093  00000+0  16683-3 0  9994
2 63142  42.9998 232.2726 0002189 226.1382 133.9310 15.84474774  3438
STARLINK-11579 [DTC]    
1 63143U 25043M   25078.73753283  .00043717  00000+0  18603-3 0  9993
2 63143  42.9969 231.4911 0001576 208.4833 151.5953 15.84493695  3518
STARLINK-11581 [DTC]    
1 63144U 25043N   25078.61087378  .00014419  00000+0  63345-4 0  9997
2 63144  43.0000 232.2585 0002465 223.1772 136.8907 15.84422397  3614
STARLINK-32949          
1 63145U 25043P   25079.16668981 -.01458335  00000+0 -16910-1 0  9999
2 63145  42.9998 229.4966 0001803 269.1033 123.7003 15.63769174  3587
STARLINK-32952          
1 63146U 25043Q   25078.91667824  .00316209  00000+0  23149-2 0  9990
2 63146  42.9994 230.9250 0002430 289.2207 160.3669 15.71452274  3629
STARLINK-32936          
1 63147U 25043R   25079.16668981 -.01463363  00000+0 -16974-1 0  9998
2 63147  42.9998 229.5254 0001737 265.8293 115.4735 15.63771296  3631
STARLINK-32937          
1 63148U 25043S   25079.16668981 -.01452181  00000+0 -16834-1 0  9990
2 63148  42.9999 229.5205 0001772 264.9140 118.3069 15.63764281  3570
STARLINK-32939          
1 63149U 25043T   25079.16668981 -.01451519  00000+0 -16824-1 0  9994
2 63149  42.9999 229.5105 0001823 271.5923 115.4587 15.63765951  3646
STARLINK-32919          
1 63150U 25043U   25079.16668981 -.01470467  00000+0 -17083-1 0  9997
2 63150  43.0001 229.5159 0001991 272.8684 112.3209 15.63743714  3692
